{
  "type": "FeatureCollection",
  "features": [
    {
      "type": "Feature",
      "properties": {
        "norad_id": 31899,
        "name": "FENGYUN 1C DEB",
        "group": "fengyun-1c-debris",
        "lat": 69.84485341616684,
        "lon": -104.99893045791374,
        "alt_km": 897.1852346801261,
        "timestamp": "2025-12-04T15:47:54.383326+00:00",
        "meta_object_name": "FENGYUN 1C DEB",
        "meta_object_id": "1999-025CLA",
        "meta_epoch": "2025-12-01T21:19:25.119552",
        "meta_mean_motion": 13.83457638,
        "meta_eccentricity": 0.01836306,
        "meta_inclination": 102.0844,
        "meta_ra_of_asc_node": 35.7436,
        "meta_arg_of_pericenter": 183.1699,
        "meta_mean_anomaly": 176.8294,
        "meta_ephemeris_type": 0,
        "meta_classification_type": "U",
        "meta_norad_cat_id": 31899,
        "meta_element_set_no": 999,
        "meta_rev_at_epoch": 67414,
        "meta_bstar": 0.0017165998,
        "meta_mean_motion_dot": 2.087e-05,
        "meta_mean_motion_ddot": 0,
        "tle_line1": "1 31899U 99025CLA 25335.88848518  .00002087  00000+0  17166-2 0  9992",
        "tle_line2": "2 31899 102.0844  35.7436 0183630 183.1699 176.8294 13.83457638674144"
      },
      "geometry": {
        "type": "Point",
        "coordinates": [
          -104.99893045791374,
          69.84485341616684
        ]
      }
    },
    {
      "type": "Feature",
      "properties": {
        "norad_id": 31901,
        "name": "FENGYUN 1C DEB",
        "group": "fengyun-1c-debris",
        "lat": -80.84095698171471,
        "lon": 50.59303562513671,
        "alt_km": 865.5718272660151,
        "timestamp": "2025-12-04T15:47:54.383337+00:00",
        "meta_object_name": "FENGYUN 1C DEB",
        "meta_object_id": "1999-025CLC",
        "meta_epoch": "2025-11-24T16:49:26.112288",
        "meta_mean_motion": 13.94131429,
        "meta_eccentricity": 0.01304065,
        "meta_inclination": 98.5981,
        "meta_ra_of_asc_node": 291.1031,
        "meta_arg_of_pericenter": 239.8126,
        "meta_mean_anomaly": 119.0067,
        "meta_ephemeris_type": 0,
        "meta_classification_type": "U",
        "meta_norad_cat_id": 31901,
        "meta_element_set_no": 999,
        "meta_rev_at_epoch": 63156,
        "meta_bstar": 0.00020072941,
        "meta_mean_motion_dot": 2.45e-06,
        "meta_mean_motion_ddot": 0,
        "tle_line1": "1 31901U 99025CLC 25328.70099667  .00000245  00000+0  20073-3 0  9998",
        "tle_line2": "2 31901  98.5981 291.1031 0130406 239.8126 119.0067 13.94131429631560"
      },
      "geometry": {
        "type": "Point",
        "coordinates": [
          50.59303562513671,
          -80.84095698171471
        ]
      }
    },
    {
      "type": "Feature",
      "properties": {
        "norad_id": 31902,
        "name": "FENGYUN 1C DEB",
        "group": "fengyun-1c-debris",
        "lat": 10.501362598387232,
        "lon": 140.39082076320943,
        "alt_km": 686.3798043929719,
        "timestamp": "2025-12-04T15:47:54.383347+00:00",
        "meta_object_name": "FENGYUN 1C DEB",
        "meta_object_id": "1999-025CLD",
        "meta_epoch": "2025-12-02T04:14:16.253664",
        "meta_mean_motion": 14.23259815,
        "meta_eccentricity": 0.01802185,
        "meta_inclination": 98.506,
        "meta_ra_of_asc_node": 316.4015,
        "meta_arg_of_pericenter": 179.9223,
        "meta_mean_anomaly": 241.1553,
        "meta_ephemeris_type": 0,
        "meta_classification_type": "U",
        "meta_norad_cat_id": 31902,
        "meta_element_set_no": 999,
        "meta_rev_at_epoch": 64641,
        "meta_bstar": 0.00023773916,
        "meta_mean_motion_dot": 5.92e-06,
        "meta_mean_motion_ddot": 0,
        "tle_line1": "1 31902U 99025CLD 25336.17657701  .00000592  00000+0  23774-3 0  9994",
        "tle_line2": "2 31902  98.5060 316.4015 0180218 179.9223 241.1553 14.23259815646410"
      },
      "geometry": {
        "type": "Point",
        "coordinates": [
          140.39082076320943,
          10.501362598387232
        ]
      }
    },
    {
      "type": "Feature",
      "properties": {
        "norad_id": 31903,
        "name": "FENGYUN 1C DEB",
        "group": "fengyun-1c-debris",
        "lat": 16.661187677223197,
        "lon": -36.681930163659054,
        "alt_km": 624.6208976567596,
        "timestamp": "2025-12-04T15:47:54.383357+00:00",
        "meta_object_name": "FENGYUN 1C DEB",
        "meta_object_id": "1999-025CLE",
        "meta_epoch": "2025-12-04T05:51:23.817024",
        "meta_mean_motion": 14.60387993,
        "meta_eccentricity": 0.01304638,
        "meta_inclination": 99.2735,
        "meta_ra_of_asc_node": 325.6576,
        "meta_arg_of_pericenter": 61.4315,
        "meta_mean_anomaly": 299.994,
        "meta_ephemeris_type": 0,
        "meta_classification_type": "U",
        "meta_norad_cat_id": 31903,
        "meta_element_set_no": 999,
        "meta_rev_at_epoch": 97271,
        "meta_bstar": 0.001501006,
        "meta_mean_motion_dot": 8.135e-05,
        "meta_mean_motion_ddot": 0,
        "tle_line1": "1 31903U 99025CLE 25338.24402566  .00008135  00000+0  15010-2 0  9996",
        "tle_line2": "2 31903  99.2735 325.6576 0130463  61.4315 299.9940 14.60387993972712"
      },
      "geometry": {
        "type": "Point",
        "coordinates": [
          -36.681930163659054,
          16.661187677223197
        ]
      }
    },
    {
      "type": "Feature",
      "properties": {
        "norad_id": 31905,
        "name": "FENGYUN 1C DEB",
        "group": "fengyun-1c-debris",
        "lat": -10.96592759301059,
        "lon": 132.6559778738484,
        "alt_km": 743.60820431718,
        "timestamp": "2025-12-04T15:47:54.383367+00:00",
        "meta_object_name": "FENGYUN 1C DEB",
        "meta_object_id": "1999-025CLG",
        "meta_epoch": "2025-12-02T09:18:23.956992",
        "meta_mean_motion": 14.33047046,
        "meta_eccentricity": 0.01967083,
        "meta_inclination": 99.1496,
        "meta_ra_of_asc_node": 312.0469,
        "meta_arg_of_pericenter": 123.9216,
        "meta_mean_anomaly": 238.0844,
        "meta_ephemeris_type": 0,
        "meta_classification_type": "U",
        "meta_norad_cat_id": 31905,
        "meta_element_set_no": 999,
        "meta_rev_at_epoch": 96476,
        "meta_bstar": 0.00054589805,
        "meta_mean_motion_dot": 1.802e-05,
        "meta_mean_motion_ddot": 0,
        "tle_line1": "1 31905U 99025CLG 25336.38777728  .00001802  00000+0  54590-3 0  9997",
        "tle_line2": "2 31905  99.1496 312.0469 0196708 123.9216 238.0844 14.33047046964761"
      },
      "geometry": {
        "type": "Point",
        "coordinates": [
          132.6559778738484,
          -10.96592759301059
        ]
      }
    },
    {
      "type": "Feature",
      "properties": {
        "norad_id": 31906,
        "name": "FENGYUN 1C DEB",
        "group": "fengyun-1c-debris",
        "lat": 63.280910620664656,
        "lon": 94.16204908304302,
        "alt_km": 798.8393698395757,
        "timestamp": "2025-12-04T15:47:54.383377+00:00",
        "meta_object_name": "FENGYUN 1C DEB",
        "meta_object_id": "1999-025CLH",
        "meta_epoch": "2025-12-02T08:07:18.814944",
        "meta_mean_motion": 14.24439435,
        "meta_eccentricity": 0.00534026,
        "meta_inclination": 98.6932,
        "meta_ra_of_asc_node": 109.5617,
        "meta_arg_of_pericenter": 153.8908,
        "meta_mean_anomaly": 261.8139,
        "meta_ephemeris_type": 0,
        "meta_classification_type": "U",
        "meta_norad_cat_id": 31906,
        "meta_element_set_no": 999,
        "meta_rev_at_epoch": 94981,
        "meta_bstar": 0.0030581492,
        "meta_mean_motion_dot": 7.149e-05,
        "meta_mean_motion_ddot": 0,
        "tle_line1": "1 31906U 99025CLH 25336.33841221  .00007149  00000+0  30581-2 0  9996",
        "tle_line2": "2 31906  98.6932 109.5617 0053402 153.8908 261.8139 14.24439435949815"
      },
      "geometry": {
        "type": "Point",
        "coordinates": [
          94.16204908304302,
          63.280910620664656
        ]
      }
    },
    {
      "type": "Feature",
      "properties": {
        "norad_id": 31910,
        "name": "FENGYUN 1C DEB",
        "group": "fengyun-1c-debris",
        "lat": -14.471601454431214,
        "lon": 2.6188317322671186,
        "alt_km": 894.4048721402596,
        "timestamp": "2025-12-04T15:47:54.383387+00:00",
        "meta_object_name": "FENGYUN 1C DEB",
        "meta_object_id": "1999-025CLM",
        "meta_epoch": "2025-12-03T08:20:51.597024",
        "meta_mean_motion": 14.47542002,
        "meta_eccentricity": 0.022761,
        "meta_inclination": 97.666,
        "meta_ra_of_asc_node": 359.4375,
        "meta_arg_of_pericenter": 184.5972,
        "meta_mean_anomaly": 175.3136,
        "meta_ephemeris_type": 0,
        "meta_classification_type": "U",
        "meta_norad_cat_id": 31910,
        "meta_element_set_no": 999,
        "meta_rev_at_epoch": 64233,
        "meta_bstar": 0.0010343,
        "meta_mean_motion_dot": 5.229e-05,
        "meta_mean_motion_ddot": 0,
        "tle_line1": "1 31910U 99025CLM 25337.34781941  .00005229  00000+0  10343-2 0  9996",
        "tle_line2": "2 31910  97.6660 359.4375 0227610 184.5972 175.3136 14.47542002642333"
      },
      "geometry": {
        "type": "Point",
        "coordinates": [
          2.6188317322671186,
          -14.471601454431214
        ]
      }
    }
  ]
}